{"fetched_at":"2026-03-29T16:36:15Z","count":15609,"tles":[{"name":"STARLINK-31461","line1":"1 59370U 24060Y   26087.62270325 -.00002759  00000+0 -90797-4 0  9996","line2":"2 59370  43.0017 142.0928 0001328 274.7477  85.3223 15.27572486113026","category":"Starlink"}]}